{
    "links": {
        "self": "http://www.neowsapp.com/rest/v1/neo/3392449?api_key=iIulBulltgU6a56xZRHN4H3l9WmuAYTsLGpBGhQ2"
    },
    "id": "3392449",
    "neo_reference_id": "3392449",
    "name": "(2007 VH8)",
    "designation": "2007 VH8",
    "nasa_jpl_url": "http://ssd.jpl.nasa.gov/sbdb.cgi?sstr=3392449",
    "absolute_magnitude_h": 21.8,
    "estimated_diameter": {
        "kilometers": {
            "estimated_diameter_min": 0.1160259082,
            "estimated_diameter_max": 0.2594418179
        },
        "meters": {
            "estimated_diameter_min": 116.0259082094,
            "estimated_diameter_max": 259.4418179074
        },
        "miles": {
            "estimated_diameter_min": 0.0720951346,
            "estimated_diameter_max": 0.1612096218
        },
        "feet": {
            "estimated_diameter_min": 380.6624406898,
            "estimated_diameter_max": 851.1870938635
        }
    },
    "is_potentially_hazardous_asteroid": false,
    "close_approach_data": [
        {
            "close_approach_date": "2007-11-16",
            "close_approach_date_full": "2007-Nov-16 20:38",
            "epoch_date_close_approach": 1195245480000,
            "relative_velocity": {
                "kilometers_per_second": "15.0110874952",
                "kilometers_per_hour": "54039.9149825936",
                "miles_per_hour": "33578.3016179344"
            },
            "miss_distance": {
                "astronomical": "0.2330924647",
                "lunar": "90.6729687683",
                "kilometers": "34870136.232170189",
                "miles": "21667297.9287150482"
            },
            "orbiting_body": "Earth"
        }
    ],
    "orbital_data": {
        "orbit_id": "12",
        "orbit_determination_date": "2017-04-06 09:05:20",
        "first_observation_date": "2007-11-05",
        "last_observation_date": "2007-11-28",
        "data_arc_in_days": 23,
        "observations_used": 27,
        "orbit_uncertainty": "7",
        "minimum_orbit_intersection": ".2002",
        "jupiter_tisserand_invariant": "2.967",
        "epoch_osculation": "2459000.5",
        "eccentricity": ".594974918584485",
        "semi_major_axis": "2.705272236220288",
        "inclination": "25.84973254511143",
        "ascending_node_longitude": "40.65547922113607",
        "orbital_period": "1625.230223414462",
        "perihelion_distance": "1.095703107726254",
        "perihelion_argument": "44.5423804571009",
        "aphelion_distance": "4.314841364714321",
        "perihelion_time": "2459347.355438454005",
        "mean_anomaly": "283.1690648841704",
        "mean_motion": ".2215070793131527",
        "equinox": "J2000",
        "orbit_class": {
            "orbit_class_type": "AMO",
            "orbit_class_description": "Near-Earth asteroid orbits similar to that of 1221 Amor",
            "orbit_class_range": "1.017 AU < q (perihelion) < 1.3 AU"
        }
    },
    "is_sentry_object": false
}